[{"OBJECT_NAME":"STARLINK-35024","OBJECT_ID":"2025-192G","EPOCH":"2026-03-09T16:20:35.643840","MEAN_MOTION":15.31013721,"ECCENTRICITY":8.092e-5,"INCLINATION":53.1586,"RA_OF_ASC_NODE":232.3417,"ARG_OF_PERICENTER":35.0037,"MEAN_ANOMALY":325.1017,"EPHEMERIS_TYPE":0,"CLASSIFICATION_TYPE":"U","NORAD_CAT_ID":65410,"ELEMENT_SET_NO":999,"REV_AT_EPOCH":2938,"BSTAR":0.00084166183,"MEAN_MOTION_DOT":0.00025289,"MEAN_MOTION_DDOT":0},{"OBJECT_NAME":"TITAN 4B R\/B","OBJECT_ID":"2005-016B","EPOCH":"2026-03-09T20:27:57.848832","MEAN_MOTION":15.42682045,"ECCENTRICITY":0.00616552,"INCLINATION":56.9964,"RA_OF_ASC_NODE":245.9411,"ARG_OF_PERICENTER":20.2929,"MEAN_ANOMALY":340.0555,"EPHEMERIS_TYPE":0,"CLASSIFICATION_TYPE":"U","NORAD_CAT_ID":28647,"ELEMENT_SET_NO":999,"REV_AT_EPOCH":37707,"BSTAR":0.00046483736,"MEAN_MOTION_DOT":0.0002164,"MEAN_MOTION_DDOT":0}]
